KANOPUS-V 1             
1 38707U 12039A   17346.46448005  .00000233  00000-0  13814-4 0  9991
2 38707  97.4523 262.3708 0001605  89.8590  18.7105 15.20369204299145
